ONEWEB-0593             
1 54659U 22166T   23249.77613103 -.00000021  00000+0 -83267-4 0  9998
2 54659  87.9172  85.9571 0001433  84.3265 275.8033 13.21826981 37536
ONEWEB-0594             
1 54660U 22166U   23249.49228054 -.00000005  00000+0 -43840-4 0  9991
2 54660  87.9169  86.0122 0001870  92.9783 267.1565 13.21826256 37970
ONEWEB-0595             
1 54661U 22166V   23249.84762984 -.00000005  00000+0 -44343-4 0  9995
2 54661  87.9168  85.9347 0001926  84.6565 275.4789 13.21824872 37539
ONEWEB-0596             
1 54662U 22166W   23249.97380160  .00000082  00000+0  16772-3 0  9999
2 54662  87.9172  85.9104 0001374  74.3306 285.7979 13.21825163 38026
ONEWEB-0597             
1 54663U 22166X   23249.80347963  .00000121  00000+0  26239-3 0  9999
2 54663  87.9174  85.9453 0001360  92.9735 267.1554 13.21825126 37530
ONEWEB-0600             
1 54664U 22166Y   23249.86023805  .00000077  00000+0  15434-3 0  9997
2 54664  87.9175  85.9820 0001525  92.8304 267.3005 13.21824429 37510
ONEWEB-0601             
1 54665U 22166Z   23249.77720227  .00000005  00000+0 -18479-4 0  9995
2 54665  87.9171  85.9494 0001428  72.4392 287.6898 13.21825073 37697
ONEWEB-0602             
1 54666U 22166AA  23249.82028259  .00000026  00000+0  30904-4 0  9997
2 54666  87.9174  85.9486 0001446  86.2921 273.8378 13.21823708 37540
ONEWEB-0603             
1 54667U 22166AB  23249.82448656 -.00000038  00000+0 -12471-3 0  9998
2 54667  87.9176  85.9432 0001082  90.5262 269.5996 13.21828079 37472
ONEWEB-0604             
1 54668U 22166AC  23250.03895749 -.00000275  00000+0 -69789-3 0  9990
2 54668  87.9166  85.9007 0001232 106.7850 253.3419 13.21824718 37938
ONEWEB-0605             
1 54669U 22166AD  23249.95697615  .00000097  00000+0  20244-3 0  9995
2 54669  87.9135  85.9364 0001060  86.7026 273.4229 13.21827614 37998
ONEWEB-0606             
1 54670U 22166AE  23249.97906081  .00000065  00000+0  12684-3 0  9993
2 54670  87.9206  85.9212 0002070  83.1120 277.0249 13.21823741 38045
ONEWEB-0607             
1 54671U 22166AF  23249.79297547  .00000104  00000+0  22142-3 0  9998
2 54671  87.9165  85.9502 0001473  86.8854 273.2448 13.21824521 37531
ONEWEB-0608             
1 54672U 22166AG  23249.79927910  .00000081  00000+0  16353-3 0  9994
2 54672  87.9181  85.9493 0001055  70.8571 289.2677 13.21824454 38003
ONEWEB-0610             
1 54673U 22166AH  23249.78035601  .00000155  00000+0  34462-3 0  9994
2 54673  87.9174  85.9515 0001054  78.6221 281.5031 13.21825597 37443
ONEWEB-0611             
1 54674U 22166AJ  23249.84973199 -.00000071  00000+0 -20266-3 0  9991
2 54674  87.9173  85.9409 0002214  90.3418 269.7969 13.21826319 37444
ONEWEB-0612             
1 54675U 22166AK  23249.78665518  .00000031  00000+0  43681-4 0  9999
2 54675  87.9164  85.9479 0001459  74.3608 285.7687 13.21827670 37429
ONEWEB-0615             
1 54676U 22166AL  23249.84343684  .00000013  00000+0  32778-6 0  9991
2 54676  87.9179  85.9451 0001526  89.8535 270.2773 13.21824305 37912
ONEWEB-0655             
1 54677U 22166AM  23249.96957196  .00000084  00000+0  17083-3 0  9991
2 54677  87.9188  85.9293 0001605  85.6647 274.4670 13.21828013 37926
ONEWEB-0659             
1 54678U 22166AN  23249.98641836  .00000009  00000+0 -95894-5 0  9991
2 54678  87.9150  85.9611 0002027  81.0270 279.1094 13.21826419 38012
ONEWEB-0685             
1 54679U 22166AP  23249.98850793 -.00000031  00000+0 -10711-3 0  9995
2 54679  87.9178  85.9169 0000948 113.3109 246.8125 13.21824229 37901
ONEWEB-0712             
1 54680U 22166AQ  23249.77694964 -.00000042  00000+0 -11892-3 0  9993
2 54680  87.9347  70.6477 0001695  85.9616 274.1716 13.29378029 38553
ONEWEB-0714             
1 54681U 22166AR  23249.99271932  .00000023  00000+0  24828-4 0  9995
2 54681  87.9170  85.9080 0001440  93.9610 266.1689 13.21826006 38025
ONEWEB-0532             
1 55140U 23004A   23249.32852170  .00000152  00000+0  29347-3 0  9997
2 55140  87.9739 207.4982 0003988 108.9234 251.2337 13.30872554 33925
ONEWEB-0533             
1 55141U 23004B   23250.25001157  .00000015  00000+0  00000+0 0  9992
2 55141  87.5109 192.7699 0003932  91.1439  11.8184 13.67961960 34968
ONEWEB-0541             
1 55142U 23004C   23249.89481663 -.00000160  00000+0 -48773-3 0  9991
2 55142  87.8916 222.5362 0002045  80.3546 279.7813 13.11423817 33012
ONEWEB-0543             
1 55143U 23004D   23250.11081034  .00001916  00000+0  34419-3 0  9997
2 55143  86.6321 185.7693 0005265  98.9226 261.2584 14.66198812 35393
ONEWEB-0544             
1 55144U 23004E   23249.77567001  .00001379  00000+0  24667-3 0  9998
2 55144  86.6344 185.8531 0003381  93.3751 266.7850 14.66176558 35355
ONEWEB-0560             
1 55145U 23004F   23249.76997274  .00001607  00000+0  28810-3 0  9995
2 55145  86.6356 185.8930 0003894  76.9552 283.2096 14.66203835 35352
ONEWEB-0565             
1 55146U 23004G   23250.08545042 -.00000836  00000+0 -15679-3 0  9999
2 55146  86.6348 185.6692 0003064  87.2780 272.8784 14.66109263 35408
ONEWEB-0567             
1 55147U 23004H   23250.09210855  .00001513  00000+0  27050-3 0  9999
2 55147  86.6337 185.6726 0006014 108.2341 251.9528 14.66258164 35409
ONEWEB-0569             
1 55148U 23004J   23249.94071887 -.00001595  00000+0 -29493-3 0  9997
2 55148  86.5389 184.7014 0004771 109.5127 250.6603 14.66141893 35376
ONEWEB-0570             
1 55149U 23004K   23250.11243654  .00001023  00000+0  18114-3 0  9994
2 55149  86.6314 185.6506 0003413  97.8867 262.2734 14.66365284 35404
ONEWEB-0571             
1 55150U 23004L   23249.35236990  .00001534  00000+0  27459-3 0  9994
2 55150  86.6361 186.0602 0004697  99.4654 260.7090 14.66219501 35292
ONEWEB-0572             
1 55151U 23004M   23249.85953875  .00000023  00000+0  25033-4 0  9997
2 55151  87.9214 207.3981 0001737  66.4348 293.6966 13.17649680 33900
ONEWEB-0573             
1 55152U 23004N   23249.80529803  .00001628  00000+0  29256-3 0  9995
2 55152  86.6328 185.8542 0004405  98.5607 261.6106 14.66098626 35350
ONEWEB-0588             
1 55153U 23004P   23249.77648046  .00012016  00000+0  21802-2 0  9994
2 55153  86.6321 185.9215 0007325 113.4031 246.7953 14.66141404 35340
ONEWEB-0598             
1 55154U 23004Q   23249.86942408 -.00000363  00000+0 -10590-2 0  9990
2 55154  87.8523 222.6173 0002737  70.1146 290.0277 13.11409819 32959
ONEWEB-0599             
1 55155U 23004R   23249.89753409  .00000002  00000+0 -28711-4 0  9990
2 55155  87.9167 207.3720 0002210  84.0093 276.1291 13.17646143 33911
ONEWEB-0614             
1 55156U 23004S   23249.86516890 -.00000250  00000+0 -74147-3 0  9998
2 55156  87.8942 222.5565 0001505  89.0775 271.0525 13.11416672 32892
ONEWEB-0616             
1 55157U 23004T   23249.95335723 -.00000482  00000+0 -10271-2 0  9997
2 55157  88.1140 206.2401 0011826 169.0742 191.0657 13.32071382 34128
ONEWEB-0617             
1 55158U 23004U   23249.85246049  .00000271  00000+0  72748-3 0  9991
2 55158  87.8925 222.5776 0001472  64.4557 295.6723 13.11422444 32916
ONEWEB-0618             
1 55159U 23004V   23249.78526308  .00001199  00000+0  48843-3 0  9992
2 55159  86.9152 194.0347 0015208 120.0328 240.2375 14.26613969 34791
ONEWEB-0619             
1 55160U 23004W   23249.64419393  .00000082  00000+0  14280-3 0  9992
2 55160  87.9628 207.4272 0011996 185.7598 174.3406 13.31601137 33975
ONEWEB-0620             
1 55161U 23004X   23249.92355003  .00000494  00000+0  13572-2 0  9990
2 55161  87.8931 222.5631 0001737  62.0255 298.1049 13.11415486 32894
ONEWEB-0621             
1 55162U 23004Y   23249.64473356  .00010524  00000+0  29643-1 0  9992
2 55162  87.8994 222.6125 0001546  99.5627 260.5676 13.11376611 32838
ONEWEB-0622             
1 55163U 23004Z   23249.88108886  .00000434  00000+0  11889-2 0  9995
2 55163  87.8927 222.5735 0001492  57.7315 302.3957 13.11416191 32858
ONEWEB-0623             
1 55164U 23004AA  23249.95933701  .00000063  00000+0  10415-3 0  9999
2 55164  87.9582 207.4312 0003315 102.2627 257.8884 13.31025427 34011
ONEWEB-0624             
1 55165U 23004AB  23250.25001157  .00000014  00000+0  00000+0 0  9997
2 55165  87.8039 192.2123 0002031 328.4107 299.5487 13.40779535 35017
ONEWEB-0625             
1 55166U 23004AC  23250.12945771  .00000219  00000+0  43506-3 0  9992
2 55166  87.9595 207.3961 0002705  83.0712 277.0735 13.30724652 34024
ONEWEB-0626             
1 55167U 23004AD  23249.84035678  .00000022  00000+0  17764-4 0  9996
2 55167  87.9725 207.4289 0002738  89.6334 270.5119 13.30957092 33997
ONEWEB-0627             
1 55168U 23004AE  23249.64115090  .00000093  00000+0  16876-3 0  9992
2 55168  87.9587 207.4992 0002148  54.4515 305.6824 13.30819951 33962
ONEWEB-0628             
1 55169U 23004AF  23250.25001157  .00000014  00000+0  00000+0 0  9991
2 55169  87.8114 192.2873 0006361 164.9791  31.6592 13.36261724 35001
ONEWEB-0629             
1 55170U 23004AG  23249.30176584  .00000013  00000+0  40979-6 0  9999
2 55170  87.9735 207.5358 0002718 103.5195 256.6247 13.30971240 33920
ONEWEB-0631             
1 55171U 23004AH  23249.91667824 -.00747556  00000+0 -17054+0 0  9992
2 55171  86.6793 185.8106 0003205 114.4919   9.9493 14.58639424  5654
ONEWEB-0709             
1 55172U 23004AJ  23249.68555507  .00000605  00000+0  16712-2 0  9999
2 55172  87.8937 222.6092 0002821  67.2025 292.9401 13.11413113 32902
ONEWEB-0710             
1 55173U 23004AK  23249.81584151  .00000059  00000+0  95651-4 0  9996
2 55173  87.9731 207.4442 0002986  93.6296 266.5185 13.30905349 33995
ONEWEB-0711             
1 55174U 23004AL  23249.35117317 -.00000784  00000+0 -22495-2 0  9993
2 55174  87.8936 222.6498 0000982  64.9045 295.2184 13.11410748 32832
ONEWEB-0713             
1 55175U 23004AM  23249.90544514  .00000290  00000+0  78302-3 0  9997
2 55175  87.8932 222.5490 0001271  82.4532 277.6740 13.11410753 32881
ONEWEB-0715             
1 55176U 23004AN  23249.90009538  .00000148  00000+0  38275-3 0  9997
2 55176  87.8917 222.5670 0001780  87.9552 272.1780 13.11407232 32930
